"importId";"name";"engineSelect";"templateStr";"addressL2Str";"addressL3Str";"addressL4Str";"addressL5Str";"addressL6Str"
"1";"DEFAULT";"2";"${(Address.addressL2 == null) ? '' : Address.addressL2}
${(Address.addressL3 == null) ? '' : Address.addressL3}
${(Address.addressL4 == null) ? '' : Address.addressL4}
${(Address.addressL5 == null) ? '' : Address.addressL5}
${(Address.addressL6 == null) ? '' : Address.addressL6}
${(Address.country == null) ? '' : Address.country.name}";"${(Address.department == null) ? '' : Address.department}";"${(Address.floor == null) ? '' : Address.floor}";"${(Address.streetName == null) ? '' : Address.streetName}";"${(Address.postBox == null) ? '' : Address.postBox}";"${(Address.zip == null) ? '' : Address.zip} ${(Address.townName == null) ? '' : Address.townName}"
"2";"CANADA";"2";"${(Address.addressL3 == null) ? '' : Address.addressL3}
${(Address.addressL4 == null) ? '' : Address.addressL4}
${(Address.addressL5 == null) ? '' : Address.addressL5}
${(Address.addressL6 == null) ? '' : Address.addressL6}
${(Address.country == null) ? '' : Address.country.name}";;"${(Address.department == null) ? '' : Address.department}";"${(Address.room == null) ? '' : Address.room + '-'}${(Address.streetName == null) ? '' : Address.streetName}";"${(Address.postBox == null) ? '' : Address.postBox}";"${(Address.townName == null) ? '' : Address.townName} ${(Address.countrySubDivision == null) ? '' : Address.countrySubDivision} ${(Address.zip == null) ? '' : Address.zip}"
"3";"UNITED STATES OF AMERICA";"2";"${(Address.addressL3 == null) ? '' : Address.addressL3}
${(Address.addressL4 == null) ? '' : Address.addressL4}
${(Address.addressL5 == null) ? '' : Address.addressL5}
${(Address.addressL6 == null) ? '' : Address.addressL6}
${(Address.country == null) ? '' : Address.country.name}";;"${(Address.department == null) ? '' : Address.department}";"${(Address.streetName == null) ? '' : Address.streetName} ${(Address.room == null) ? '' : '#' + Address.room}";"${(Address.postBox == null) ? '' : Address.postBox}";"${(Address.townName == null) ? '' : Address.townName} ${(Address.countrySubDivision == null) ? '' : Address.countrySubDivision} ${(Address.zip == null) ? '' : Address.zip}"
"4";"MOROCCO";"2";"${(Address.addressL4 == null) ? '' : Address.addressL4}
${(Address.addressL6 == null) ? '' : Address.addressL6}
${(Address.country == null) ? '' : Address.country.name}";;;"${(Address.streetName == null) ? '' : Address.streetName}";;"${(Address.townName == null) ? '' : Address.townName}"
"5";"UNITED_KINGDOM";"2";"${(Address.addressL2 == null) ? '' : Address.addressL2}
${(Address.addressL3 == null) ? '' : Address.addressL3}
${(Address.addressL4 == null) ? '' : Address.addressL4}
${(Address.addressL5 == null) ? '' : Address.addressL5}
${(Address.addressL6 == null) ? '' : Address.addressL6}
${(Address.country == null) ? '' : Address.country.name}";"${(Address.department == null) ? '' : Address.department}";"${(Address.subDepartment == null) ? '' : Address.subDepartment}";"${(Address.streetName == null) ? '' : Address.streetName}";"${(Address.postBox == null) ? '' : Address.postBox}";"${(Address.townName == null) ? '' : Address.townName}
${(Address.zip == null) ? '' : Address.zip}"
"6";"INDIA";"2";"${(Address.addressL3 == null) ? '' : Address.addressL3}
${(Address.addressL4 == null) ? '' : Address.addressL4}
${(Address.addressL5 == null) ? '' : Address.addressL5}
${(Address.addressL6 == null) ? '' : Address.addressL6}
${(Address.country == null) ? '' : Address.country.name}";;"${(Address.department == null) ? '' : Address.department}";"${(Address.streetName == null) ? '' : Address.streetName}";"${(Address.countrySubDivision == null) ? '' : Address.countrySubDivision}";"${(Address.zip == null) ? '' : Address.zip + '-'}${(Address.townName == null) ? '' : Address.townName}"
"7";"AUSTRALIA";"2";"${(Address.addressL2 == null) ? '' : Address.addressL2}
${(Address.addressL3 == null) ? '' : Address.addressL3}
${(Address.addressL4 == null) ? '' : Address.addressL4}
${(Address.addressL5 == null) ? '' : Address.addressL5}
${(Address.addressL6 == null) ? '' : Address.addressL6}
${(Address.country == null) ? '' : Address.country.name}";"${(Address.department == null) ? '' : Address.department}";"${(Address.subDepartment == null) ? '' : Address.subDepartment}";"${(Address.room == null) ? '' : Address.room + '/'}${(Address.streetName == null) ? '' : Address.streetName}";"${(Address.postBox == null) ? '' : Address.postBox}";"${(Address.townName == null) ? '' : Address.townName} ${(Address.countrySubDivision == null) ? '' : Address.countrySubDivision} ${(Address.zip == null) ? '' : Address.zip}"